OBJECT_NAME,OBJECT_ID,EPOCH,MEAN_MOTION,ECCENTRICITY,INCLINATION,RA_OF_ASC_NODE,ARG_OF_PERICENTER,MEAN_ANOMALY,EPHEMERIS_TYPE,CLASSIFICATION_TYPE,NORAD_CAT_ID,ELEMENT_SET_NO,REV_AT_EPOCH,BSTAR,MEAN_MOTION_DOT,MEAN_MOTION_DDOT
FLOCK 4X-10,2022-002BF,2024-01-20T04:30:16.796160,15.37427631,.0005975,97.4155,94.5323,171.9918,188.1423,0,U,51037,999,11206,.86823E-3,.31889E-3,0
FLOCK 4X-36,2022-002BH,2024-01-20T03:25:21.466848,15.37131195,.0005912,97.4133,94.3768,178.4950,181.6313,0,U,51039,999,11205,.8957E-3,.32589E-3,0
FLOCK 4X-21,2022-002BJ,2024-01-20T03:44:10.015872,15.41817727,.0005866,97.4068,95.2730,162.8042,197.3404,0,U,51040,999,11213,.94356E-3,.40066E-3,0
FLOCK 4X-31,2022-002BK,2024-01-20T04:01:04.084896,15.37879273,.0004551,97.4074,93.9455,166.8329,193.3035,0,U,51041,999,11206,.90105E-3,.33583E-3,0
FLOCK 4X-34,2022-002BL,2024-01-20T03:59:45.856608,15.36953013,.0004926,97.4169,94.3960,176.5278,183.6001,0,U,51042,999,11205,.87955E-3,.31809E-3,0
FLOCK 4X-6,2022-002BM,2024-01-20T03:31:11.481024,15.37015859,.0005264,97.4136,94.2410,174.6703,185.4598,0,U,51043,999,11205,.88469E-3,.32063E-3,0
FLOCK 4X-28,2022-002BP,2024-01-20T04:56:09.128544,15.43215022,.0006333,97.4050,95.4534,144.3246,215.8426,0,U,51045,999,11216,.96727E-3,.43058E-3,0
FLOCK 4X-19,2022-002BQ,2024-01-20T14:08:25.707552,15.53720443,.0002868,97.4022,99.3272,136.9534,223.1944,0,U,51046,999,11243,.9724E-3,.62531E-3,0
FLOCK 4X-9,2022-002BR,2024-01-20T17:45:43.489152,15.37195038,.00053,97.4136,94.9250,177.0131,183.1146,0,U,51047,999,11214,.94838E-3,.34587E-3,0
FLOCK 4X-35,2022-002BS,2024-01-20T15:37:23.058912,15.36860384,.0004896,97.4059,94.2260,171.7371,188.3955,0,U,51048,999,11213,.7213E-3,.25973E-3,0
FLOCK 4X-11,2022-002BT,2024-01-20T03:28:26.901984,15.40958027,.0005922,97.4072,94.8579,153.2057,206.9497,0,U,51049,999,11212,.8967E-3,.36988E-3,0
FLOCK 4X-40,2022-002BW,2024-01-20T17:46:45.100128,15.40563014,.0004139,97.4081,94.5433,185.8574,174.2624,0,U,51052,999,11215,.17218E-2,.70464E-3,0
FLOCK 4X-24,2022-002CA,2024-01-20T03:52:54.808608,15.36975845,.000496,97.4092,93.8496,168.0713,192.0650,0,U,51056,999,11205,.89677E-3,.3246E-3,0
FLOCK 4X-4,2022-002CJ,2024-01-20T04:01:25.258944,15.37391806,.0005209,97.4118,94.0592,168.3620,191.7746,0,U,51064,999,11206,.861E-3,.3158E-3,0
FLOCK 4X-7,2022-002CK,2024-01-20T11:21:32.536800,15.37039496,.0005377,97.4116,94.5053,181.7810,178.3417,0,U,51065,999,11210,.84358E-3,.30587E-3,0
FLOCK 4X-14,2022-002CL,2024-01-20T17:51:51.988608,15.39438263,.0005246,97.4115,95.3454,178.3074,181.8190,0,U,51066,999,11216,.13708E-2,.53943E-3,0
FLOCK 4Y-24,2023-001M,2024-01-20T02:32:55.012128,15.23334436,.0009273,97.4495,82.7546,343.1070,16.9857,0,U,55020,999,5804,.68935E-3,.1634E-3,0
FLOCK 4Y-32,2023-001N,2024-01-20T14:31:45.840288,15.23608359,.0009058,97.4480,83.2877,336.5826,23.4997,0,U,55021,999,5812,.67119E-3,.16036E-3,0
FLOCK 4Y-22,2023-001P,2024-01-20T15:01:00.048864,15.23340527,.0009322,97.4494,83.2922,331.0186,29.0532,0,U,55022,999,5812,.62756E-3,.14869E-3,0
FLOCK 4Y-18,2023-001Q,2024-01-20T14:38:18.719232,15.23511605,.0009248,97.4522,83.4600,337.6291,22.4541,0,U,55023,999,5812,.65167E-3,.15522E-3,0
FLOCK 4Y-14,2023-001R,2024-01-20T14:58:11.610336,15.23253339,.0009593,97.4507,83.3891,342.2796,17.8105,0,U,55024,999,5812,.59552E-3,.14069E-3,0
FLOCK 4Y-30,2023-001S,2024-01-20T17:36:28.954944,15.23585199,.0009587,97.4529,83.6170,339.7624,20.3232,0,U,55025,999,5814,.66917E-3,.15978E-3,0
FLOCK 4Y-19,2023-001T,2024-01-20T03:42:47.520288,15.23390102,.0009646,97.4488,82.8109,334.0650,26.0103,0,U,55026,999,5805,.66337E-3,.15748E-3,0
FLOCK 4Y-25,2023-001U,2024-01-20T14:40:16.325184,15.23396722,.0009332,97.4473,83.2336,337.8442,22.2390,0,U,55027,999,5812,.64387E-3,.15283E-3,0
FLOCK 4Y-5,2023-001V,2024-01-20T03:16:45.243264,15.23435467,.0009847,97.4499,82.8891,331.9998,28.0708,0,U,55028,999,5805,.68401E-3,.16264E-3,0
FLOCK 4Y-10,2023-001W,2024-01-20T14:24:14.706144,15.23498546,.0009419,97.4511,83.4555,335.2645,24.8139,0,U,55029,999,5812,.66914E-3,.15936E-3,0
FLOCK 4Y-29,2023-001X,2024-01-20T17:05:24.685728,15.24494773,.0010382,97.4475,83.4145,333.5040,26.5666,0,U,55030,999,5814,.95844E-3,.23574E-3,0
FLOCK 4Y-17,2023-001Y,2024-01-20T14:37:50.108736,15.23433898,.0009466,97.4525,83.4784,338.4190,21.6647,0,U,55031,999,5812,.61672E-3,.14651E-3,0
FLOCK 4Y-7,2023-001Z,2024-01-20T03:04:01.254720,15.23447221,.0009921,97.4486,82.8730,331.7631,28.3067,0,U,55032,999,5805,.70464E-3,.16764E-3,0
FLOCK 4Y-28,2023-001AA,2024-01-20T14:57:04.121568,15.28038402,.0007594,97.4457,84.5048,332.2408,27.8425,0,U,55033,999,5821,.68043E-3,.18575E-3,0
