0 FLOCK 4X 10
1 51037U 22002BF  24020.18769440  .00031889  00000-0  86823-3 0  9998
2 51037  97.4155  94.5323 0005975 171.9918 188.1423 15.37427631112063
0 FLOCK 4X 36
1 51039U 22002BH  24020.14260957  .00032589  00000-0  89570-3 0  9995
2 51039  97.4133  94.3768 0005912 178.4950 181.6313 15.37131195112053
0 FLOCK 4X 21
1 51040U 22002BJ  24020.15567148  .00040066  00000-0  94356-3 0  9997
2 51040  97.4068  95.2730 0005866 162.8042 197.3404 15.41817727112139
0 FLOCK 4X 31
1 51041U 22002BK  24020.16740839  .00033583  00000-0  90105-3 0  9993
2 51041  97.4074  93.9455 0004551 166.8329 193.3035 15.37879273112065
0 FLOCK 4X 34
1 51042U 22002BL  24020.16650297  .00031809  00000-0  87955-3 0  9990
2 51042  97.4169  94.3960 0004926 176.5278 183.6001 15.36953013112052
0 FLOCK 4X 6
1 51043U 22002BM  24020.14666066  .00032063  00000-0  88469-3 0  9994
2 51043  97.4136  94.2410 0005264 174.6703 185.4598 15.37015859112053
0 FLOCK 4X 28
1 51045U 22002BP  24020.20566121  .00043058  00000-0  96727-3 0  9996
2 51045  97.4050  95.4534 0006333 144.3246 215.8426 15.43215022112165
0 FLOCK 4X 19
1 51046U 22002BQ  24020.58918643  .00062531  00000-0  97240-3 0  9996
2 51046  97.4022  99.3272 0002868 136.9534 223.1944 15.53720443112439
0 FLOCK 4X 9
1 51047U 22002BR  24020.74008668  .00034587  00000-0  94838-3 0  9992
2 51047  97.4136  94.9250 0005300 177.0131 183.1146 15.37195038112141
0 FLOCK 4X 35
1 51048U 22002BS  24020.65096133  .00025973  00000-0  72130-3 0  9997
2 51048  97.4059  94.2260 0004896 171.7371 188.3955 15.36860384112132
0 FLOCK 4X 11
1 51049U 22002BT  24020.14475581  .00036988  00000-0  89670-3 0  9995
2 51049  97.4072  94.8579 0005922 153.2057 206.9497 15.40958027112128
0 FLOCK 4X 40
1 51052U 22002BW  24020.74079977  .00070464  00000-0  17218-2 0  9999
2 51052  97.4081  94.5433 0004139 185.8574 174.2624 15.40563014112152
0 FLOCK 4X 24
1 51056U 22002CA  24020.16174547  .00032460  00000-0  89677-3 0  9991
2 51056  97.4092  93.8496 0004960 168.0713 192.0650 15.36975845112059
0 FLOCK 4X 4
1 51064U 22002CJ  24020.16765346  .00031580  00000-0  86100-3 0  9993
2 51064  97.4118  94.0592 0005209 168.3620 191.7746 15.37391806112067
0 FLOCK 4X 7
1 51065U 22002CK  24020.47329325  .00030587  00000-0  84358-3 0  9990
2 51065  97.4116  94.5053 0005377 181.7810 178.3417 15.37039496112104
0 FLOCK 4X 14
1 51066U 22002CL  24020.74435172  .00053943  00000-0  13708-2 0  9990
2 51066  97.4115  95.3454 0005246 178.3074 181.8190 15.39438263112167
0 FLOCK 4Y 24
1 55020U 23001M   24020.10619227  .00016340  00000-0  68935-3 0  9992
2 55020  97.4495  82.7546 0009273 343.1070  16.9857 15.23334436 58040
0 FLOCK 4Y 32
1 55021U 23001N   24020.60539167  .00016036  00000-0  67119-3 0  9997
2 55021  97.4480  83.2877 0009058 336.5826  23.4997 15.23608359 58129
0 FLOCK 4Y 22
1 55022U 23001P   24020.62569501  .00014869  00000-0  62756-3 0  9999
2 55022  97.4494  83.2922 0009322 331.0186  29.0532 15.23340527 58126
0 FLOCK 4Y 18
1 55023U 23001Q   24020.60993888  .00015522  00000-0  65167-3 0  9993
2 55023  97.4522  83.4600 0009248 337.6291  22.4541 15.23511605 58124
0 FLOCK 4Y 14
1 55024U 23001R   24020.62374549  .00014069  00000-0  59552-3 0  9999
2 55024  97.4507  83.3891 0009593 342.2796  17.8105 15.23253339 58125
0 FLOCK 4Y 30
1 55025U 23001S   24020.73366846  .00015978  00000-0  66917-3 0  9996
2 55025  97.4529  83.6170 0009587 339.7624  20.3232 15.23585199 58141
0 FLOCK 4Y 19
1 55026U 23001T   24020.15471667  .00015748  00000-0  66337-3 0  9992
2 55026  97.4488  82.8109 0009646 334.0650  26.0103 15.23390102 58050
0 FLOCK 4Y 25
1 55027U 23001U   24020.61130006  .00015283  00000-0  64387-3 0  9990
2 55027  97.4473  83.2336 0009332 337.8442  22.2390 15.23396722 58122
0 FLOCK 4Y 5
1 55028U 23001V   24020.13663476  .00016264  00000-0  68401-3 0  9991
2 55028  97.4499  82.8891 0009847 331.9998  28.0708 15.23435467 58053
0 FLOCK 4Y 10
1 55029U 23001W   24020.60017021  .00015936  00000-0  66914-3 0  9995
2 55029  97.4511  83.4555 0009419 335.2645  24.8139 15.23498546 58121
0 FLOCK 4Y 29
1 55030U 23001X   24020.71209127  .00023574  00000-0  95844-3 0  9990
2 55030  97.4475  83.4145 0010382 333.5040  26.5666 15.24494773 58143
0 FLOCK 4Y 17
1 55031U 23001Y   24020.60960774  .00014651  00000-0  61672-3 0  9999
2 55031  97.4525  83.4784 0009466 338.4190  21.6647 15.23433898 58123
0 FLOCK 4Y 7
1 55032U 23001Z   24020.12779230  .00016764  00000-0  70464-3 0  9998
2 55032  97.4486  82.8730 0009921 331.7631  28.3067 15.23447221 58053
0 FLOCK 4Y 28
1 55033U 23001AA  24020.62296437  .00018575  00000-0  68043-3 0  9999
2 55033  97.4457  84.5048 0007594 332.2408  27.8425 15.28038402 58217
